FLOCK 4G-10             
1 62670U 25009BP  26068.70827885  .00013952  00000+0  52624-3 0  9995
2 62670  97.3967 150.5883 0003469 341.4844  18.6269 15.27155944121340
STARLINK-33960          
1 63966U 25099Q   26068.32733710  .00028557  00000+0  10430-2 0  9999
2 63966  42.9956 178.0221 0000432 252.3904 107.6900 15.27588078 47287
